ALOS (DAICHI)           
1 28931U 06002A   26050.87063374  .00001286  00000+0  22405-3 0  9994
2 28931  98.1190   6.9199 0001643  55.3285 304.8076 14.69746820 70865
H-2A R/B                
1 28932U 06002B   26050.98844426  .00007299  00000+0  37091-3 0  9999
2 28932  98.2383 196.5001 0052133 302.1776  57.4403 15.16027420 91754
RESURS-DK 1             
1 29228U 06021A   26051.07801626  .00001824  00000+0  11027-3 0  9994
2 29228  69.9320 282.5804 0003214 184.1869 175.9271 15.12632476 84865
CZ-4B R/B               
1 29507U 06046C   26051.12715354  .00004583  00000+0  23438-3 0  9993
2 29507  97.5625  96.0821 0032478 330.8969  29.0452 15.16705397 57386
CZ-2C R/B               
1 31114U 07010B   26051.18378758  .00000094  00000+0  62393-4 0  9998
2 31114  98.3973 165.3412 0058553 346.2369  13.7210 14.20239508977238
COSMO-SKYMED 1          
1 31598U 07023A   26051.27938626  .00003408  00000+0  30605-3 0  9996
2 31598  97.8868 242.1735 0001479  89.0638 271.0752 14.96391285 12301
COSMOS 2428             
1 31792U 07029A   26051.26070247  .00000192  00000+0  12853-3 0  9995
2 31792  70.9399 239.9278 0008070 296.0358  63.9931 14.12939982961633
SL-16 R/B               
1 31793U 07029B   26050.89812131 -.00000050  00000+0 -85556-6 0  9998
2 31793  70.9747 209.7812 0002404 281.8562 188.1827 14.14836719962859
KORONAS-FOTON           
1 33504U 09003A   26051.12574237  .00011782  00000+0  26747-3 0  9999
2 33504  82.4301 294.1325 0009596 212.9412 147.1238 15.42847099943035
CZ-2C R/B               
1 37731U 11030B   26050.84348137  .00001479  00000+0  19243-3 0  9999
2 37731  97.8516   8.4692 0053900  49.4356   3.7014 14.81146429787452
H-2A R/B                
1 38341U 12025E   26050.85923127  .00003738  00000+0  34121-3 0  9993
2 38341  98.4711  16.4856 0045165  13.3311 346.9089 14.95004038745553
SHIJIAN-16 (SJ-16)      
1 39358U 13057A   26051.26541506  .00001000  00000+0  10059-3 0  9995
2 39358  74.9703 218.0710 0016262 156.6815 203.5114 14.92267391668907
